CTC1_L_00193001-01
1 30224U 22390GP  26037.47803241  .00000000  00000+0  00000-0 0  9993
2 30224  45.0000   0.0000 0000000   0.0000   0.0000 13.56072426    19
CTC1_L_00193001-02
1 30225U 26053PI  26037.47803241  .00000000  00000+0  00000-0 0  9994
2 30225  45.0000   0.0000 0000000   0.0000  90.0000 13.56072426    19
CTC1_L_00193001-03
1 30226U 26306HP  26037.47803241  .00000000  00000+0  00000-0 0  9996
2 30226  45.0000   0.0000 0000000   0.0000 180.0000 13.56072426    10
CTC1_L_00193001-04
1 30227U 24616WJ  26037.47803241  .00000000  00000+0  00000-0 0  9999
2 30227  45.0000   0.0000 0000000   0.0000 270.0000 13.56072426    11
CTC1_L_00193002-01
1 30228U 26981VJ  26037.47803241  .00000000  00000+0  00000-0 0  9997
2 30228  45.0000  12.0000 0000000   0.0000  12.0000 13.56072426    19
CTC1_L_00193002-02
1 30229U 23243QZ  26037.47803241  .00000000  00000+0  00000-0 0  9996
2 30229  45.0000  12.0000 0000000   0.0000 102.0000 13.56072426    10
CTC1_L_00193002-03
1 30230U 26168BT  26037.47803241  .00000000  00000+0  00000-0 0  9997
2 30230  45.0000  12.0000 0000000   0.0000 192.0000 13.56072426    11
CTC1_L_00193002-04
1 30231U 23212RA  26037.47803241  .00000000  00000+0  00000-0 0  9995
2 30231  45.0000  12.0000 0000000   0.0000 282.0000 13.56072426    12
CTC1_L_00193003-01
1 30232U 24520SR  26037.47803241  .00000000  00000+0  00000-0 0  9999
2 30232  45.0000  24.0000 0000000   0.0000  24.0000 13.56072426    10
CTC1_L_00193003-02
1 30233U 23084AX  26037.47803241  .00000000  00000+0  00000-0 0  9994
2 30233  45.0000  24.0000 0000000   0.0000 114.0000 13.56072426    11
CTC1_L_00193003-03
1 30234U 24371YV  26037.47803241  .00000000  00000+0  00000-0 0  9995
2 30234  45.0000  24.0000 0000000   0.0000 204.0000 13.56072426    12
CTC1_L_00193003-04
1 30235U 23066QP  26037.47803241  .00000000  00000+0  00000-0 0  9996
2 30235  45.0000  24.0000 0000000   0.0000 294.0000 13.56072426    12
CTC1_L_00193004-01
1 30236U 25574H   26037.47803241  .00000000  00000+0  00000-0 0  9993
2 30236  45.0000  36.0000 0000000   0.0000  36.0000 13.56072426    10
CTC1_L_00193004-02
1 30237U 26591ZY  26037.47803241  .00000000  00000+0  00000-0 0  9994
2 30237  45.0000  36.0000 0000000   0.0000 126.0000 13.56072426    11
CTC1_L_00193004-03
1 30238U 25827PA  26037.47803241  .00000000  00000+0  00000-0 0  9996
2 30238  45.0000  36.0000 0000000   0.0000 216.0000 13.56072426    12
CTC1_L_00193004-04
1 30239U 25991WO  26037.47803241  .00000000  00000+0  00000-0 0  9999
2 30239  45.0000  36.0000 0000000   0.0000 306.0000 13.56072426    13
CTC1_L_00193005-01
1 30240U 26423XQ  26037.47803241  .00000000  00000+0  00000-0 0  9992
2 30240  45.0000  48.0000 0000000   0.0000  48.0000 13.56072426    11
CTC1_L_00193005-02
1 30241U 25190OI  26037.47803241  .00000000  00000+0  00000-0 0  9993
2 30241  45.0000  48.0000 0000000   0.0000 138.0000 13.56072426    12
CTC1_L_00193005-03
1 30242U 24033CI  26037.47803241  .00000000  00000+0  00000-0 0  9999
2 30242  45.0000  48.0000 0000000   0.0000 228.0000 13.56072426    13
CTC1_L_00193005-04
1 30243U 26501CA  26037.47803241  .00000000  00000+0  00000-0 0  9992
2 30243  45.0000  48.0000 0000000   0.0000 318.0000 13.56072426    14
CTC1_L_00193006-01
1 30244U 22136UC  26037.47803241  .00000000  00000+0  00000-0 0  9993
2 30244  45.0000  60.0000 0000000   0.0000  60.0000 13.56072426    13
CTC1_L_00193006-02
1 30245U 25279PC  26037.47803241  .00000000  00000+0  00000-0 0  9995
2 30245  45.0000  60.0000 0000000   0.0000 150.0000 13.56072426    14
CTC1_L_00193006-03
1 30246U 26429GN  26037.47803241  .00000000  00000+0  00000-0 0  9994
2 30246  45.0000  60.0000 0000000   0.0000 240.0000 13.56072426    15
CTC1_L_00193006-04
1 30247U 24578JR  26037.47803241  .00000000  00000+0  00000-0 0  9998
2 30247  45.0000  60.0000 0000000   0.0000 330.0000 13.56072426    16
CTC1_L_00193007-01
1 30248U 23785VZ  26037.47803241  .00000000  00000+0  00000-0 0  9998
2 30248  45.0000  72.0000 0000000   0.0000  72.0000 13.56072426    13
CTC1_L_00193007-02
1 30249U 26806XK  26037.47803241  .00000000  00000+0  00000-0 0  9996
2 30249  45.0000  72.0000 0000000   0.0000 162.0000 13.56072426    14
CTC1_L_00193007-03
1 30250U 23186JV  26037.47803241  .00000000  00000+0  00000-0 0  9996
2 30250  45.0000  72.0000 0000000   0.0000 252.0000 13.56072426    16
CTC1_L_00193007-04
1 30251U 22826TL  26037.47803241  .00000000  00000+0  00000-0 0  9997
2 30251  45.0000  72.0000 0000000   0.0000 342.0000 13.56072426    17
CTC1_L_00193008-01
1 30252U 25023FL  26037.47803241  .00000000  00000+0  00000-0 0  9990
2 30252  45.0000  84.0000 0000000   0.0000  84.0000 13.56072426    14
CTC1_L_00193008-02
1 30253U 25824RP  26037.47803241  .00000000  00000+0  00000-0 0  9990
2 30253  45.0000  84.0000 0000000   0.0000 174.0000 13.56072426    15
CTC1_L_00193008-03
1 30254U 25158YQ  26037.47803241  .00000000  00000+0  00000-0 0  9991
2 30254  45.0000  84.0000 0000000   0.0000 264.0000 13.56072426    16
CTC1_L_00193008-04
1 30255U 25699UH  26037.47803241  .00000000  00000+0  00000-0 0  9992
2 30255  45.0000  84.0000 0000000   0.0000 354.0000 13.56072426    17
CTC1_L_00193009-01
1 30256U 25724VD  26037.47803241  .00000000  00000+0  00000-0 0  9992
2 30256  45.0000  96.0000 0000000   0.0000  96.0000 13.56072426    14
CTC1_L_00193009-02
1 30257U 22186XJ  26037.47803241  .00000000  00000+0  00000-0 0  9992
2 30257  45.0000  96.0000 0000000   0.0000 186.0000 13.56072426    15
CTC1_L_00193009-03
1 30258U 23465FW  26037.47803241  .00000000  00000+0  00000-0 0  9994
2 30258  45.0000  96.0000 0000000   0.0000 276.0000 13.56072426    16
CTC1_L_00193009-04
1 30259U 23075SV  26037.47803241  .00000000  00000+0  00000-0 0  9992
2 30259  45.0000  96.0000 0000000   0.0000   6.0000 13.56072426    18
CTC1_L_00193010-01
1 30260U 24009EF  26037.47803241  .00000000  00000+0  00000-0 0  9992
2 30260  45.0000 108.0000 0000000   0.0000 108.0000 13.56072426    17
CTC1_L_00193010-02
1 30261U 22263ZY  26037.47803241  .00000000  00000+0  00000-0 0  9993
2 30261  45.0000 108.0000 0000000   0.0000 198.0000 13.56072426    17
CTC1_L_00193010-03
1 30262U 24569XU  26037.47803241  .00000000  00000+0  00000-0 0  9995
2 30262  45.0000 108.0000 0000000   0.0000 288.0000 13.56072426    18
CTC1_L_00193010-04
1 30263U 25823LO  26037.47803241  .00000000  00000+0  00000-0 0  9990
2 30263  45.0000 108.0000 0000000   0.0000  18.0000 13.56072426    10
CTC1_L_00193011-01
1 30264U 24667DC  26037.47803241  .00000000  00000+0  00000-0 0  9996
2 30264  45.0000 120.0000 0000000   0.0000 120.0000 13.56072426    19
CTC1_L_00193011-02
1 30265U 23980YG  26037.47803241  .00000000  00000+0  00000-0 0  9994
2 30265  45.0000 120.0000 0000000   0.0000 210.0000 13.56072426    10
CTC1_L_00193011-03
1 30266U 24500NL  26037.47803241  .00000000  00000+0  00000-0 0  9994
2 30266  45.0000 120.0000 0000000   0.0000 300.0000 13.56072426    11
CTC1_L_00193011-04
1 30267U 26039GH  26037.47803241  .00000000  00000+0  00000-0 0  9994
2 30267  45.0000 120.0000 0000000   0.0000  30.0000 13.56072426    12
CTC1_L_00193012-01
1 30268U 23803XX  26037.47803241  .00000000  00000+0  00000-0 0  9991
2 30268  45.0000 132.0000 0000000   0.0000 132.0000 13.56072426    19
CTC1_L_00193012-02
1 30269U 26888QQ  26037.47803241  .00000000  00000+0  00000-0 0  9998
2 30269  45.0000 132.0000 0000000   0.0000 222.0000 13.56072426    10
CTC1_L_00193012-03
1 30270U 24644JN  26037.47803241  .00000000  00000+0  00000-0 0  9998
2 30270  45.0000 132.0000 0000000   0.0000 312.0000 13.56072426    12
CTC1_L_00193012-04
1 30271U 23328GE  26037.47803241  .00000000  00000+0  00000-0 0  9997
2 30271  45.0000 132.0000 0000000   0.0000  42.0000 13.56072426    13
CTC1_L_00193013-01
1 30272U 22511NV  26037.47803241  .00000000  00000+0  00000-0 0  9991
2 30272  45.0000 144.0000 0000000   0.0000 144.0000 13.56072426    10
CTC1_L_00193013-02
1 30273U 26859TG  26037.47803241  .00000000  00000+0  00000-0 0  9991
2 30273  45.0000 144.0000 0000000   0.0000 234.0000 13.56072426    11
CTC1_L_00193013-03
1 30274U 26860IV  26037.47803241  .00000000  00000+0  00000-0 0  9994
2 30274  45.0000 144.0000 0000000   0.0000 324.0000 13.56072426    12
CTC1_L_00193013-04
1 30275U 26680YF  26037.47803241  .00000000  00000+0  00000-0 0  9995
2 30275  45.0000 144.0000 0000000   0.0000  54.0000 13.56072426    13
CTC1_L_00193014-01
1 30276U 22080TS  26037.47803241  .00000000  00000+0  00000-0 0  9996
2 30276  45.0000 156.0000 0000000   0.0000 156.0000 13.56072426    10
CTC1_L_00193014-02
1 30277U 22956ZS  26037.47803241  .00000000  00000+0  00000-0 0  9999
2 30277  45.0000 156.0000 0000000   0.0000 246.0000 13.56072426    11
CTC1_L_00193014-03
1 30278U 22076JX  26037.47803241  .00000000  00000+0  00000-0 0  9993
2 30278  45.0000 156.0000 0000000   0.0000 336.0000 13.56072426    12
CTC1_L_00193014-04
1 30279U 26524JX  26037.47803241  .00000000  00000+0  00000-0 0  9996
2 30279  45.0000 156.0000 0000000   0.0000  66.0000 13.56072426    13
CTC1_L_00193015-01
1 30280U 22777DU  26037.47803241  .00000000  00000+0  00000-0 0  9994
2 30280  45.0000 168.0000 0000000   0.0000 168.0000 13.56072426    11
CTC1_L_00193015-02
1 30281U 22339RQ  26037.47803241  .00000000  00000+0  00000-0 0  9999
2 30281  45.0000 168.0000 0000000   0.0000 258.0000 13.56072426    12
CTC1_L_00193015-03
1 30282U 23902HM  26037.47803241  .00000000  00000+0  00000-0 0  9997
2 30282  45.0000 168.0000 0000000   0.0000 348.0000 13.56072426    13
CTC1_L_00193015-04
1 30283U 24345UQ  26037.47803241  .00000000  00000+0  00000-0 0  9990
2 30283  45.0000 168.0000 0000000   0.0000  78.0000 13.56072426    14
CTC1_L_00193016-01
1 30284U 23792BJ  26037.47803241  .00000000  00000+0  00000-0 0  9996
2 30284  45.0000 180.0000 0000000   0.0000 180.0000 13.56072426    13
CTC1_L_00193016-02
1 30285U 25131QH  26037.47803241  .00000000  00000+0  00000-0 0  9996
2 30285  45.0000 180.0000 0000000   0.0000 270.0000 13.56072426    14
